[{"OBJECT_NAME":"GPM-CORE","OBJECT_ID":"2014-009C","EPOCH":"2026-03-09T23:15:36.630144","MEAN_MOTION":15.44720121,"ECCENTRICITY":0.00123946,"INCLINATION":64.9727,"RA_OF_ASC_NODE":280.5513,"ARG_OF_PERICENTER":266.0432,"MEAN_ANOMALY":93.9292,"EPHEMERIS_TYPE":0,"CLASSIFICATION_TYPE":"U","NORAD_CAT_ID":39574,"ELEMENT_SET_NO":999,"REV_AT_EPOCH":68248,"BSTAR":0.00019317886,"MEAN_MOTION_DOT":8.85e-5,"MEAN_MOTION_DDOT":0},{"OBJECT_NAME":"STARLINK-36757","OBJECT_ID":"2026-026H","EPOCH":"2026-03-09T22:00:01.999584","MEAN_MOTION":15.47745179,"ECCENTRICITY":0.0002088,"INCLINATION":97.2845,"RA_OF_ASC_NODE":123.4678,"ARG_OF_PERICENTER":87.7955,"MEAN_ANOMALY":48.2643,"EPHEMERIS_TYPE":0,"CLASSIFICATION_TYPE":"U","NORAD_CAT_ID":67728,"ELEMENT_SET_NO":999,"REV_AT_EPOCH":535,"BSTAR":-0.044342715,"MEAN_MOTION_DOT":-0.02044206,"MEAN_MOTION_DDOT":0}]
